{"type":"FeatureCollection","crs":{"type":"name","properties":{"name":"EPSG:4326"}},"features":[{"type":"Feature","id":1,"geometry":{"type":"Point","coordinates":[-48.659183799999937,-26.907133699999974]},"properties":{"db_h11sh.hsu_hxmoy.locais_votacao_secoes_2022_locais_de_votacao_e_secoe.fid":1,"oid_":0,"municíp_1":"ITAJAÍ","zona_ele_1":16,"local_de_1":"ESCOLA DE ENSINO MÉDIO VICTOR MEIRELLES","endereco_1":"RUA GIL STEIN FERREIRA, 318","bairro_1":"CENTRO","cep":88301210,"seções":"3, 4, 5, 6, 7, 46, 82, 225","seções_1":"3(220), 4(217), 5(219), 6(218), 7(218), 46(220), 82(220), 225(220)","total_el_1":1752}},{"type":"Feature","id":2,"geometry":{"type":"Point","coordinates":[-48.65719219999994,-26.907374199999936]},"properties":{"db_h11sh.hsu_hxmoy.locais_votacao_secoes_2022_locais_de_votacao_e_secoe.fid":2,"oid_":0,"municíp_1":"ITAJAÍ","zona_ele_1":16,"local_de_1":"COLEGIO SALESIANO","endereco_1":"RUA FELIPE SCHMITT, 87","bairro_1":"CENTRO","cep":88301040,"seções":"8, 9, 10, 11, 13, 14, 40, 97, 230, 349, 350, 351, 352, 353, 519","seções_1":"8(393), 9(398), 10(397), 11(392), 13(398), 14(393), 40(395), 97(393), 230(398), 349(397), 350(399), 351(399), 352(398), 353(399), 519(24)","total_el_1":5573}},{"type":"Feature","id":3,"geometry":{"type":"Point","coordinates":[-48.649880999999937,-26.924772699999949]},"properties":{"db_h11sh.hsu_hxmoy.locais_votacao_secoes_2022_locais_de_votacao_e_secoe.fid":3,"oid_":0,"municíp_1":"ITAJAÍ","zona_ele_1":16,"local_de_1":"ESCOLA BÁSICA GASPAR DA COSTA MORAES","endereco_1":"RODOVIA OSVALDO REIS, 54","bairro_1":"FAZENDA","cep":88306001,"seções":"15, 16, 17, 18, 19, 20, 85, 86, 226, 435, 453, 461, 473, 486, 502, 508, 512","seções_1":"15(392), 16(394), 17(388), 18(390), 19(387), 20(388), 85(382), 86(390), 226(387), 435(390), 453(388), 461(388), 473(392), 486(389), 502(394), 508(389), 512(392)","total_el_1":6620}},{"type":"Feature","id":4,"geometry":{"type":"Point","coordinates":[-48.671567299999936,-26.90712869999993]},"properties":{"db_h11sh.hsu_hxmoy.locais_votacao_secoes_2022_locais_de_votacao_e_secoe.fid":4,"oid_":0,"municíp_1":"ITAJAÍ","zona_ele_1":16,"local_de_1":"ESCOLA DE EDUCAÇÃO BÁSICA DEPUTADO NILTON KUCKER","endereco_1":"RUA ALFREDO TROMPOWSKI, 506","bairro_1":"VILA OPERÁRIA","cep":88303140,"seções":"27, 28, 29, 30, 31, 66, 83, 84, 96, 234, 342","seções_1":"27(289), 28(290), 29(290), 30(288), 31(290), 66(293), 83(287), 84(288), 96(290), 234(290), 342(294)","total_el_1":3189}},{"type":"Feature","id":5,"geometry":{"type":"Point","coordinates":[-48.669740699999977,-26.903644999999983]},"properties":{"db_h11sh.hsu_hxmoy.locais_votacao_secoes_2022_locais_de_votacao_e_secoe.fid":5,"oid_":0,"municíp_1":"ITAJAÍ","zona_ele_1":16,"local_de_1":"CENTRO DE EDUCAÇÃO INFANTIL VEREADOR HELUIZ ANTÔNIO MORAES GONZAGA","endereco_1":"RUA JOSÉ EUGÊNIO MULLER, N. 130","bairro_1":"VILA OPERÁRIA","cep":88303160,"seções":"33, 34, 35, 98","seções_1":"33(164), 34(160), 35(162), 98(164)","total_el_1":650}},{"type":"Feature","id":6,"geometry":{"type":"Point","coordinates":[-48.661939999999959,-26.903478999999948]},"properties":{"db_h11sh.hsu_hxmoy.locais_votacao_secoes_2022_locais_de_votacao_e_secoe.fid":6,"oid_":0,"municíp_1":"ITAJAÍ","zona_ele_1":16,"local_de_1":"COLEGIO SAO JOSE","endereco_1":"RUA SILVA, N 365","bairro_1":"CENTRO","cep":88301080,"seções":"1, 2, 32, 36, 37, 41, 42, 43, 65, 90, 410","seções_1":"1(190), 2(191), 32(191), 36(190), 37(194), 41(192), 42(192), 43(192), 65(192), 90(192), 410(187)","total_el_1":2103}},{"type":"Feature","id":7,"geometry":{"type":"Point","coordinates":[-48.679960699999981,-26.90066319999994]},"properties":{"db_h11sh.hsu_hxmoy.locais_votacao_secoes_2022_locais_de_votacao_e_secoe.fid":7,"oid_":0,"municíp_1":"ITAJAÍ","zona_ele_1":16,"local_de_1":"ESCOLA DE ENSINO MÉDIO PROFESSOR HENRIQUE DA SILVA FONTES","endereco_1":"RUA PEDRO RANGEL, 202","bairro_1":"SÃO JOÃO","cep":88304430,"seções":"38, 39, 45, 163, 164, 165, 166, 167, 168, 169, 231, 242, 245, 303, 333, 422, 457","seções_1":"38(259), 39(260), 45(258), 163(259), 164(259), 165(260), 166(259), 167(259), 168(257), 169(255), 231(260), 242(256), 245(254), 303(257), 333(254), 422(259), 457(260)","total_el_1":4385}},{"type":"Feature","id":8,"geometry":{"type":"Point","coordinates":[-48.687554199999965,-26.931916699999931]},"properties":{"db_h11sh.hsu_hxmoy.locais_votacao_secoes_2022_locais_de_votacao_e_secoe.fid":8,"oid_":0,"municíp_1":"ITAJAÍ","zona_ele_1":16,"local_de_1":"ESCOLA BÁSICA PREFEITO ALBERTO WERNER","endereco_1":"RUA OLGA GERN PEREIRA, 170","bairro_1":"RESSACADA","cep":88307630,"seções":"47, 48, 439, 507","seções_1":"47(351), 48(351), 439(351), 507(356)","total_el_1":1409}},{"type":"Feature","id":9,"geometry":{"type":"Point","coordinates":[-48.670745799999963,-26.915336399999944]},"properties":{"db_h11sh.hsu_hxmoy.locais_votacao_secoes_2022_locais_de_votacao_e_secoe.fid":9,"oid_":0,"municíp_1":"ITAJAÍ","zona_ele_1":16,"local_de_1":"ESCOLA DE EDUCAÇÃO BÁSICA FRANCISCO DE PAULA SEARA","endereco_1":"RUA JOSE EUGENIO MULLER, 1391","bairro_1":"DOM BOSCO","cep":88303170,"seções":"22, 23, 24, 25, 26, 73, 94, 95, 241, 251, 276, 305, 328, 343","seções_1":"22(330), 23(325), 24(323), 25(324), 26(326), 73(328), 94(327), 95(326), 241(321), 251(324), 276(327), 305(325), 328(327), 343(324)","total_el_1":4557}},{"type":"Feature","id":10,"geometry":{"type":"Point","coordinates":[-48.664328799999964,-26.91613289999998]},"properties":{"db_h11sh.hsu_hxmoy.locais_votacao_secoes_2022_locais_de_votacao_e_secoe.fid":10,"oid_":0,"municíp_1":"ITAJAÍ","zona_ele_1":16,"local_de_1":"UNIVALI - UNIVERSIDADE DO VALE DO ITAJAÍ","endereco_1":"RUA URUGUAI, 458","bairro_1":"CENTRO","cep":88302202,"seções":"12, 21, 92, 93, 285, 299, 320, 336, 385, 386, 387, 388, 389, 390, 391, 392, 393, 394, 395, 396, 397, 398, 420, 431, 442, 485","seções_1":"12(350), 21(353), 92(354), 93(351), 285(353), 299(356), 320(355), 336(356), 385(347), 386(354), 387(350), 388(351), 389(350), 390(354), 391(351), 392(353), 393(353), 394(345), 395(354), 396(352), 397(343), 398(353), 420(353), 431(355), 442(354), 485(352)","total_el_1":9152}},{"type":"Feature","id":11,"geometry":{"type":"Point","coordinates":[-48.677864299999953,-26.905881099999931]},"properties":{"db_h11sh.hsu_hxmoy.locais_votacao_secoes_2022_locais_de_votacao_e_secoe.fid":11,"oid_":0,"municíp_1":"ITAJAÍ","zona_ele_1":16,"local_de_1":"ESCOLA DE EDUCAÇÃO BÁSICA PAULO BAUER","endereco_1":"RUA INDAIAL, N. 1743","bairro_1":"SÃO JOÃO","cep":88304300,"seções":"100, 280, 306, 415, 444, 471, 506, 513, 517","seções_1":"100(386), 280(393), 306(396), 415(390), 444(392), 471(393), 506(392), 513(386), 517(185)","total_el_1":3313}},{"type":"Feature","id":12,"geometry":{"type":"Point","coordinates":[-48.633268899999962,-26.929112599999939]},"properties":{"db_h11sh.hsu_hxmoy.locais_votacao_secoes_2022_locais_de_votacao_e_secoe.fid":12,"oid_":0,"municíp_1":"ITAJAÍ","zona_ele_1":16,"local_de_1":"CENTRO DE EDUCAÇÃO INFANTIL CÂNDIDA VARGAS","endereco_1":"RUA CONSUL CARLOS RENAUX, N. 367","bairro_1":"CABEÇUDAS","cep":88306450,"seções":"345, 346, 509","seções_1":"345(355), 346(355), 509(355)","total_el_1":1065}},{"type":"Feature","id":13,"geometry":{"type":"Point","coordinates":[-48.642405099999962,-26.94817919999997]},"properties":{"db_h11sh.hsu_hxmoy.locais_votacao_secoes_2022_locais_de_votacao_e_secoe.fid":13,"oid_":0,"municíp_1":"ITAJAÍ","zona_ele_1":16,"local_de_1":"ESCOLA BÁSICA YOLANDA LAURINDO ARDIGÓ","endereco_1":"RUA BRÁULIO WERNER, 164","bairro_1":"PRAIA BRAVA","cep":88306720,"seções":"347, 348, 416, 434, 452, 476, 503, 511","seções_1":"347(389), 348(391), 416(388), 434(393), 452(388), 476(390), 503(395), 511(390)","total_el_1":3124}},{"type":"Feature","id":14,"geometry":{"type":"Point","coordinates":[-48.66806859999997,-26.907855199999972]},"properties":{"db_h11sh.hsu_hxmoy.locais_votacao_secoes_2022_locais_de_votacao_e_secoe.fid":14,"oid_":0,"municíp_1":"ITAJAÍ","zona_ele_1":16,"local_de_1":"COLÉGIO CENECISTA PEDRO ANTÔNIO FAYAL","endereco_1":"RUA ALFREDO TROMPOWSKI, N. 153","bairro_1":"VILA OPERÁRIA","cep":88303140,"seções":"354, 355, 356, 357, 432, 459, 495, 518","seções_1":"354(393), 355(395), 356(395), 357(389), 432(389), 459(387), 495(394), 518(79)","total_el_1":2821}},{"type":"Feature","id":16,"geometry":{"type":"Point","coordinates":[-48.644957799999986,-26.92886029999994]},"properties":{"db_h11sh.hsu_hxmoy.locais_votacao_secoes_2022_locais_de_votacao_e_secoe.fid":16,"oid_":0,"municíp_1":"ITAJAÍ","zona_ele_1":16,"local_de_1":"CENTRO DE EDUCAÇÃO INFANTIL SAGRADA FAMÍLIA","endereco_1":"RUA PEDRO LUIZ DA SILVA, 20","bairro_1":"FAZENDINHA","cep":88306150,"seções":"363, 364, 365, 366","seções_1":"363(363), 364(364), 365(363), 366(364)","total_el_1":1454}},{"type":"Feature","id":17,"geometry":{"type":"Point","coordinates":[-48.678533899999934,-26.919005799999979]},"properties":{"db_h11sh.hsu_hxmoy.locais_votacao_secoes_2022_locais_de_votacao_e_secoe.fid":17,"oid_":0,"municíp_1":"ITAJAÍ","zona_ele_1":16,"local_de_1":"ESCOLA BÁSICA PROFESSORA MARIA DUTRA GOMES","endereco_1":"RUA JACÓ ARDIGÓ, N. 117","bairro_1":"DOM BOSCO","cep":88307000,"seções":"367, 368, 369, 419, 450, 474, 496, 510","seções_1":"367(385), 368(381), 369(380), 419(384), 450(388), 474(386), 496(389), 510(387)","total_el_1":3080}},{"type":"Feature","id":18,"geometry":{"type":"Point","coordinates":[-48.677074399999981,-26.888567499999965]},"properties":{"db_h11sh.hsu_hxmoy.locais_votacao_secoes_2022_locais_de_votacao_e_secoe.fid":18,"oid_":0,"municíp_1":"ITAJAÍ","zona_ele_1":16,"local_de_1":"ESCOLA BÁSICA ARNALDO BRANDÃO","endereco_1":"RUA LEODEGÁRIO PEDRO SILVA, N. 633","bairro_1":"IMARUÍ","cep":88305620,"seções":"370, 371, 372, 373, 374, 375, 376, 429, 454","seções_1":"370(313), 371(315), 372(307), 373(307), 374(308), 375(315), 376(315), 429(311), 454(312)","total_el_1":2803}},{"type":"Feature","id":19,"geometry":{"type":"Point","coordinates":[-48.677008799999953,-26.908977299999947]},"properties":{"db_h11sh.hsu_hxmoy.locais_votacao_secoes_2022_locais_de_votacao_e_secoe.fid":19,"oid_":0,"municíp_1":"ITAJAÍ","zona_ele_1":16,"local_de_1":"ESCOLA BÁSICA AVELINO WERNER","endereco_1":"RUA SANTO ANTÔNIO, 320","bairro_1":"SÃO JUDAS","cep":88303310,"seções":"254, 334, 377, 378, 379, 380, 381, 382, 383, 384, 409","seções_1":"254(363), 334(365), 377(363), 378(364), 379(368), 380(364), 381(370), 382(366), 383(367), 384(362), 409(365)","total_el_1":4017}},{"type":"Feature","id":20,"geometry":{"type":"Point","coordinates":[-48.664334899999972,-26.914476399999955]},"properties":{"db_h11sh.hsu_hxmoy.locais_votacao_secoes_2022_locais_de_votacao_e_secoe.fid":20,"oid_":0,"municíp_1":"ITAJAÍ","zona_ele_1":16,"local_de_1":"ESCOLA DE EDUCAÇÃO BÁSICA PROFESSOR PEDRO PAULO PHILLIPP","endereco_1":"RUA JORGE MATTOS,","bairro_1":"CENTRO","cep":88302130,"seções":"399, 400, 401, 402, 403","seções_1":"399(213), 400(213), 401(216), 402(206), 403(214)","total_el_1":1062}},{"type":"Feature","id":21,"geometry":{"type":"Point","coordinates":[-48.679893499999935,-26.898777699999982]},"properties":{"db_h11sh.hsu_hxmoy.locais_votacao_secoes_2022_locais_de_votacao_e_secoe.fid":21,"oid_":0,"municíp_1":"ITAJAÍ","zona_ele_1":16,"local_de_1":"ESCOLA BÁSICA JOÃO DUARTE","endereco_1":"RUA ERNESTO KOBARG, N. 372","bairro_1":"SÃO JOÃO","cep":88304460,"seções":"404, 405, 406, 407, 408","seções_1":"404(270), 405(270), 406(270), 407(269), 408(270)","total_el_1":1349}},{"type":"Feature","id":23,"geometry":{"type":"Point","coordinates":[-48.684864999999945,-26.896187999999938]},"properties":{"db_h11sh.hsu_hxmoy.locais_votacao_secoes_2022_locais_de_votacao_e_secoe.fid":23,"oid_":0,"municíp_1":"ITAJAÍ","zona_ele_1":97,"local_de_1":"ESCOLA BÁSICA MANSUETO TRÉS","endereco_1":"RUA PORTO UNIÃO, 155 - BAMBUZAL","bairro_1":"SÃO VICENTE","cep":88309060,"seções":"35, 36, 37, 38, 39, 40, 41, 42, 43, 263","seções_1":"35(296), 36(296), 37(296), 38(297), 39(296), 40(296), 41(294), 42(294), 43(295), 263(296)","total_el_1":2956}},{"type":"Feature","id":24,"geometry":{"type":"Point","coordinates":[-48.687570099999959,-26.902359299999944]},"properties":{"db_h11sh.hsu_hxmoy.locais_votacao_secoes_2022_locais_de_votacao_e_secoe.fid":24,"oid_":0,"municíp_1":"ITAJAÍ","zona_ele_1":97,"local_de_1":"ESCOLA BÁSICA ANÍBAL CESAR","endereco_1":"RUA ANTÔNIO CIRILO DUTRA, S/N","bairro_1":"SÃO VICENTE","cep":88309130,"seções":"22, 23, 24, 25, 26, 27, 28, 29, 30, 31, 44, 45, 46, 47, 48, 99, 100, 135, 140, 192, 194, 200, 202, 209, 215, 222","seções_1":"22(288), 23(284), 24(289), 25(289), 26(290), 27(289), 28(288), 29(290), 30(283), 31(284), 44(319), 45(295), 46(323), 47(318), 48(318), 99(319), 100(325), 135(322), 140(315), 192(287), 194(287), 200(306), 202(322), 209(325), 215(320), 222(312)","total_el_1":7887}},{"type":"Feature","id":25,"geometry":{"type":"Point","coordinates":[-48.732222999999976,-26.90574399999997]},"properties":{"db_h11sh.hsu_hxmoy.locais_votacao_secoes_2022_locais_de_votacao_e_secoe.fid":25,"oid_":0,"municíp_1":"ITAJAÍ","zona_ele_1":97,"local_de_1":"GRUPO ESCOLAR  JORGE DOMINGOS GONZAGA","endereco_1":"RUA DOMINGOS RAMPELOTTI, 1517","bairro_1":"SÃO ROQUE","cep":88317600,"seções":"75, 76, 288","seções_1":"75(341), 76(335), 288(339)","total_el_1":1015}},{"type":"Feature","id":26,"geometry":{"type":"Point","coordinates":[-48.697245099999975,-26.882979099999943]},"properties":{"db_h11sh.hsu_hxmoy.locais_votacao_secoes_2022_locais_de_votacao_e_secoe.fid":26,"oid_":0,"municíp_1":"ITAJAÍ","zona_ele_1":97,"local_de_1":"ESCOLA BÁSICA PADRE PEDRO BARON","endereco_1":"RUA LUIZ JOSÉ MEDEIROS, 259","bairro_1":"CORDEIROS","cep":88311120,"seções":"33, 77, 78, 86, 95, 96, 191, 275, 301","seções_1":"33(348), 77(345), 78(343), 86(344), 95(342), 96(346), 191(337), 275(346), 301(347)","total_el_1":3098}},{"type":"Feature","id":27,"geometry":{"type":"Point","coordinates":[-48.700439899999935,-26.878677799999934]},"properties":{"db_h11sh.hsu_hxmoy.locais_votacao_secoes_2022_locais_de_votacao_e_secoe.fid":27,"oid_":0,"municíp_1":"ITAJAÍ","zona_ele_1":97,"local_de_1":"ESCOLA BÁSICA PROFESSORA MARIA JOSÉ HULSE PEIXOTO","endereco_1":"RUA LÍDIA PUEL PEIXER, 555 - JARDIM VILA NOVA","bairro_1":"MURTA","cep":88311285,"seções":"104, 105, 228, 250, 281, 309, 328, 348","seções_1":"104(390), 105(386), 228(390), 250(388), 281(388), 309(391), 328(393), 348(240)","total_el_1":2966}},{"type":"Feature","id":28,"geometry":{"type":"Point","coordinates":[-48.73611509999995,-26.888261399999976]},"properties":{"db_h11sh.hsu_hxmoy.locais_votacao_secoes_2022_locais_de_votacao_e_secoe.fid":28,"oid_":0,"municíp_1":"ITAJAÍ","zona_ele_1":97,"local_de_1":"ESCOLA BÁSICA PROFESSORA THEREZA BEZERRA DE ATHAYDE","endereco_1":"AVENIDA ATÍLIO DALSÓQUIO, 50 - LOTEAMENTO PORTAL I","bairro_1":"ESPINHEIROS","cep":88317140,"seções":"106, 213, 239, 259, 277, 298, 316, 331, 349","seções_1":"106(390), 213(389), 239(393), 259(383), 277(386), 298(392), 316(390), 331(394), 349(242)","total_el_1":3359}},{"type":"Feature","id":29,"geometry":{"type":"Point","coordinates":[-48.701059999999984,-26.896692999999971]},"properties":{"db_h11sh.hsu_hxmoy.locais_votacao_secoes_2022_locais_de_votacao_e_secoe.fid":29,"oid_":0,"municíp_1":"ITAJAÍ","zona_ele_1":97,"local_de_1":"ESCOLA DE EDUCAÇÃO BÁSICA ELIZABETH KONDER REIS","endereco_1":"RUA GUSTAVO BERNEDT, 987","bairro_1":"CORDEIROS","cep":88310550,"seções":"55, 56, 57, 58, 71, 72, 101, 102, 107, 108, 109, 126, 127, 139, 193","seções_1":"55(326), 56(325), 57(321), 58(322), 71(328), 72(325), 101(328), 102(325), 107(321), 108(325), 109(328), 126(326), 127(321), 139(323), 193(324)","total_el_1":4868}},{"type":"Feature","id":30,"geometry":{"type":"Point","coordinates":[-48.741750999999965,-26.94538799999998]},"properties":{"db_h11sh.hsu_hxmoy.locais_votacao_secoes_2022_locais_de_votacao_e_secoe.fid":30,"oid_":0,"municíp_1":"ITAJAÍ","zona_ele_1":97,"local_de_1":"ESCOLA BÁSICA FRANCISCO CELSO MAFRA","endereco_1":"AVENIDA ITAIPAVA, 4107","bairro_1":"ITAIPAVA","cep":88316300,"seções":"113, 114, 131, 242, 289, 323, 352","seções_1":"113(395), 114(392), 131(393), 242(394), 289(394), 323(396), 352(122)","total_el_1":2486}},{"type":"Feature","id":31,"geometry":{"type":"Point","coordinates":[-48.769473299999959,-26.996711999999945]},"properties":{"db_h11sh.hsu_hxmoy.locais_votacao_secoes_2022_locais_de_votacao_e_secoe.fid":31,"oid_":0,"municíp_1":"ITAJAÍ","zona_ele_1":97,"local_de_1":"ESCOLA ISOLADA MARIA PERPÉTUA PEREIRA","endereco_1":"RUA BENTA CUSTÓDIO VIEIRA, 418","bairro_1":"PACIÊNCIA","cep":88318200,"seções":"115, 291","seções_1":"115(287), 291(284)","total_el_1":571}},{"type":"Feature","id":32,"geometry":{"type":"Point","coordinates":[-48.769861099999957,-26.898933299999953]},"properties":{"db_h11sh.hsu_hxmoy.locais_votacao_secoes_2022_locais_de_votacao_e_secoe.fid":32,"oid_":0,"municíp_1":"ITAJAÍ","zona_ele_1":97,"local_de_1":"ESCOLA ISOLADA CLARINDO SEBASTIÃO DA CUNHA","endereco_1":"RUA CLARINDO SEBASTIÃO DA CUNHA, 1385","bairro_1":"ESPINHEIROS","cep":88317198,"seções":"117, 333","seções_1":"117(316), 333(98)","total_el_1":414}},{"type":"Feature","id":33,"geometry":{"type":"Point","coordinates":[-48.692854899999986,-26.917766599999936]},"properties":{"db_h11sh.hsu_hxmoy.locais_votacao_secoes_2022_locais_de_votacao_e_secoe.fid":33,"oid_":0,"municíp_1":"ITAJAÍ","zona_ele_1":97,"local_de_1":"ESCOLA BÁSICA ELIAS ADAIME","endereco_1":"RUA DAS HORTÊNCIAS, 278","bairro_1":"CIDADE NOVA","cep":88308080,"seções":"87, 88, 89, 118, 119, 124, 125, 132, 138, 196, 201, 204, 211, 218, 248","seções_1":"87(333), 88(326), 89(321), 118(333), 119(328), 124(327), 125(328), 132(328), 138(326), 196(327), 201(321), 204(324), 211(325), 218(321), 248(326)","total_el_1":4894}},{"type":"Feature","id":34,"geometry":{"type":"Point","coordinates":[-48.696608899999944,-26.90200649999997]},"properties":{"db_h11sh.hsu_hxmoy.locais_votacao_secoes_2022_locais_de_votacao_e_secoe.fid":34,"oid_":0,"municíp_1":"ITAJAÍ","zona_ele_1":97,"local_de_1":"ESCOLA BÁSICA MARECHAL OLÍMPIO FALCONIERI DA CUNHA","endereco_1":"RUA ANTÔNIO CARLOS PEREIRA LEÃO FILHO, 456 - RIO BONITO","bairro_1":"SÃO VICENTE","cep":88309450,"seções":"120, 121, 122, 123, 128, 129, 130, 133, 137, 198, 203, 210, 214, 219, 225","seções_1":"120(382), 121(377), 122(379), 123(378), 128(380), 129(374), 130(377), 133(377), 137(381), 198(379), 203(379), 210(378), 214(378), 219(377), 225(375)","total_el_1":5671}},{"type":"Feature","id":35,"geometry":{"type":"Point","coordinates":[-48.790716099999941,-26.97416359999994]},"properties":{"db_h11sh.hsu_hxmoy.locais_votacao_secoes_2022_locais_de_votacao_e_secoe.fid":35,"oid_":0,"municíp_1":"ITAJAÍ","zona_ele_1":97,"local_de_1":"CENTRO DE EDUCAÇÃO INFANTIL LUIZ SILVÉRIO VIEIRA","endereco_1":"RUA PADRE GUILHERME KLEINE, 159","bairro_1":"ARRAIAL DOS CUNHAS","cep":88316001,"seções":"142","seções_1":"142(236)","total_el_1":236}},{"type":"Feature","id":36,"geometry":{"type":"Point","coordinates":[-48.798848999999962,-26.99891109999993]},"properties":{"db_h11sh.hsu_hxmoy.locais_votacao_secoes_2022_locais_de_votacao_e_secoe.fid":36,"oid_":0,"municíp_1":"ITAJAÍ","zona_ele_1":97,"local_de_1":"SALÃO PAROQUIAL BRILHANTE I","endereco_1":"SERAFIM GAMBA, 4930","bairro_1":"BRILHANTE I","cep":88318260,"seções":"144, 145","seções_1":"144(171), 145(167)","total_el_1":338}},{"type":"Feature","id":37,"geometry":{"type":"Point","coordinates":[-48.720357999999976,-26.896714399999951]},"properties":{"db_h11sh.hsu_hxmoy.locais_votacao_secoes_2022_locais_de_votacao_e_secoe.fid":37,"oid_":0,"municíp_1":"ITAJAÍ","zona_ele_1":97,"local_de_1":"ESCOLA BÁSICA JOSÉ POTTER","endereco_1":"RUA FERMINO VIEIRA CORDEIRO, 129","bairro_1":"ESPINHEIROS","cep":88317200,"seções":"146, 147, 247, 305, 317, 337, 353","seções_1":"146(390), 147(396), 247(396), 305(399), 317(396), 337(399), 353(72)","total_el_1":2448}},{"type":"Feature","id":38,"geometry":{"type":"Point","coordinates":[-48.700996199999963,-26.882973199999981]},"properties":{"db_h11sh.hsu_hxmoy.locais_votacao_secoes_2022_locais_de_votacao_e_secoe.fid":38,"oid_":0,"municíp_1":"ITAJAÍ","zona_ele_1":97,"local_de_1":"ESCOLA BÁSICA MELVIN JONES","endereco_1":"RUA SEBASTIÃO ROMEU SOARES, 640","bairro_1":"CORDEIROS","cep":88311200,"seções":"148, 149, 150, 151, 152, 153, 195, 208, 224, 240, 290, 325","seções_1":"148(382), 149(379), 150(380), 151(384), 152(379), 153(382), 195(376), 208(378), 224(374), 240(376), 290(383), 325(384)","total_el_1":4557}},{"type":"Feature","id":39,"geometry":{"type":"Point","coordinates":[-48.743384999999932,-26.857677999999964]},"properties":{"db_h11sh.hsu_hxmoy.locais_votacao_secoes_2022_locais_de_votacao_e_secoe.fid":39,"oid_":0,"municíp_1":"ITAJAÍ","zona_ele_1":97,"local_de_1":"ESCOLA MUNICIPAL ROSA NEGREIROS DE CABRAL","endereco_1":"RUA BRUNO VICENTE DA LUZ, 5626 - PEDRA DE AMOLAR","bairro_1":"ESPINHEIROS","cep":88317020,"seções":"154, 155","seções_1":"154(177), 155(177)","total_el_1":354}},{"type":"Feature","id":40,"geometry":{"type":"Point","coordinates":[-48.697805799999969,-26.886838399999931]},"properties":{"db_h11sh.hsu_hxmoy.locais_votacao_secoes_2022_locais_de_votacao_e_secoe.fid":40,"oid_":0,"municíp_1":"ITAJAÍ","zona_ele_1":97,"local_de_1":"ESCOLA BÁSICA ANTÔNIO RAMOS","endereco_1":"AVENIDA INDEPENDÊNCIA, 55","bairro_1":"CORDEIROS","cep":88310420,"seções":"156, 157, 158, 159, 160, 161, 162, 163, 164, 165, 166, 199, 207, 221, 249","seções_1":"156(292), 157(288), 158(292), 159(289), 160(292), 161(292), 162(292), 163(293), 164(291), 165(291), 166(292), 199(287), 207(288), 221(289), 249(290)","total_el_1":4358}},{"type":"Feature","id":41,"geometry":{"type":"Point","coordinates":[-48.694951899999978,-26.88778869999993]},"properties":{"db_h11sh.hsu_hxmoy.locais_votacao_secoes_2022_locais_de_votacao_e_secoe.fid":41,"oid_":0,"municíp_1":"ITAJAÍ","zona_ele_1":97,"local_de_1":"ESCOLA DE EDUCAÇÃO BÁSICA DOM AFONSO NIEHUES","endereco_1":"RUA SANTO AGOSTINHO, 466","bairro_1":"CORDEIROS","cep":88310200,"seções":"167, 168, 169, 170, 171, 172, 173, 174, 197, 205, 216, 226, 234, 245, 335","seções_1":"167(372), 168(368), 169(368), 170(368), 171(366), 172(366), 173(371), 174(364), 197(365), 205(368), 216(365), 226(364), 234(365), 245(369), 335(371)","total_el_1":5510}},{"type":"Feature","id":42,"geometry":{"type":"Point","coordinates":[-48.731085999999948,-26.86949999999996]},"properties":{"db_h11sh.hsu_hxmoy.locais_votacao_secoes_2022_locais_de_votacao_e_secoe.fid":42,"oid_":0,"municíp_1":"ITAJAÍ","zona_ele_1":97,"local_de_1":"ESCOLA BÁSICA PROFESSORA EDY VIEIRA WENDHAUSEN ROTHBARTH","endereco_1":"RODOVIA BR 101 - KM 115 - N. 3010","bairro_1":"SALSEIROS","cep":88311601,"seções":"175, 176, 220, 336","seções_1":"175(270), 176(321), 220(300), 336(254)","total_el_1":1145}},{"type":"Feature","id":43,"geometry":{"type":"Point","coordinates":[-48.729939899999977,-26.887302999999974]},"properties":{"db_h11sh.hsu_hxmoy.locais_votacao_secoes_2022_locais_de_votacao_e_secoe.fid":43,"oid_":0,"municíp_1":"ITAJAÍ","zona_ele_1":97,"local_de_1":"GRUPO ESCOLAR PROFESSORA MARIA NILZA FERREIRA EVARISTO","endereco_1":"RODOVIA JORGE LACERDA KM 4, N. 3700","bairro_1":"ESPINHEIROS","cep":88317100,"seções":"177, 178, 179, 312","seções_1":"177(326), 178(323), 179(324), 312(324)","total_el_1":1297}},{"type":"Feature","id":44,"geometry":{"type":"Point","coordinates":[-48.857486699999981,-27.035743299999979]},"properties":{"db_h11sh.hsu_hxmoy.locais_votacao_secoes_2022_locais_de_votacao_e_secoe.fid":44,"oid_":0,"municíp_1":"ITAJAÍ","zona_ele_1":97,"local_de_1":"ESCOLA DE EDUCAÇÃO BÁSICA CARLOS FANTINI","endereco_1":"RUA EDMUNDO LEOPOLDO MERIZIO, 1515","bairro_1":"LIMOEIRO","cep":88316990,"seções":"180, 181, 236, 310, 321","seções_1":"180(304), 181(324), 236(304), 310(367), 321(235)","total_el_1":1534}},{"type":"Feature","id":45,"geometry":{"type":"Point","coordinates":[-48.80143929999997,-27.031388899999968]},"properties":{"db_h11sh.hsu_hxmoy.locais_votacao_secoes_2022_locais_de_votacao_e_secoe.fid":45,"oid_":0,"municíp_1":"ITAJAÍ","zona_ele_1":97,"local_de_1":"ESCOLA BÁSICA PROFESSOR MARTINHO GERVÁSI","endereco_1":"RUA RODOLPHO GIRARDI, 4309","bairro_1":"BRILHANTE II","cep":88318331,"seções":"182, 260","seções_1":"182(252), 260(255)","total_el_1":507}},{"type":"Feature","id":46,"geometry":{"type":"Point","coordinates":[-48.828309999999931,-26.990281299999936]},"properties":{"db_h11sh.hsu_hxmoy.locais_votacao_secoes_2022_locais_de_votacao_e_secoe.fid":46,"oid_":0,"municíp_1":"ITAJAÍ","zona_ele_1":97,"local_de_1":"ESCOLA ISOLADA DUQUE DE CAXIAS","endereco_1":"VERGÍLIO CADORE, S/N","bairro_1":"CAMPECHE","cep":88318410,"seções":"183","seções_1":"183(314)","total_el_1":314}},{"type":"Feature","id":47,"geometry":{"type":"Point","coordinates":[-48.721201099999973,-26.94213039999994]},"properties":{"db_h11sh.hsu_hxmoy.locais_votacao_secoes_2022_locais_de_votacao_e_secoe.fid":47,"oid_":0,"municíp_1":"ITAJAÍ","zona_ele_1":97,"local_de_1":"ESCOLA BÁSICA PROFESSORA JUDITH DUARTE DE OLIVEIRA","endereco_1":"AVENIDA ITAIPAVA,  2125","bairro_1":"ITAIPAVA","cep":88316300,"seções":"184, 185, 186, 187, 188, 206, 230, 268","seções_1":"184(363), 185(361), 186(359), 187(357), 188(361), 206(358), 230(357), 268(363)","total_el_1":2879}},{"type":"Feature","id":48,"geometry":{"type":"Point","coordinates":[-48.757683999999983,-26.963934999999935]},"properties":{"db_h11sh.hsu_hxmoy.locais_votacao_secoes_2022_locais_de_votacao_e_secoe.fid":48,"oid_":0,"municíp_1":"ITAJAÍ","zona_ele_1":97,"local_de_1":"CENTRO DE EDUCAÇÃO INFANTIL GRAZIELA VIEIRA","endereco_1":"RUA JOSÉ DALLAGO, 225","bairro_1":"QUILÔMETRO DOZE","cep":88318045,"seções":"189, 190","seções_1":"189(396), 190(396)","total_el_1":792}},{"type":"Feature","id":49,"geometry":{"type":"Point","coordinates":[-48.698675899999955,-26.919963799999948]},"properties":{"db_h11sh.hsu_hxmoy.locais_votacao_secoes_2022_locais_de_votacao_e_secoe.fid":49,"oid_":0,"municíp_1":"ITAJAÍ","zona_ele_1":97,"local_de_1":"CAIC - CENTRO EDUCACIONAL PROF. CACILDO ROMAGNONI","endereco_1":"RUA EMANUEL JOSÉ REBELO, 60","bairro_1":"CIDADE NOVA","cep":88308315,"seções":"212, 217, 223, 227, 229, 233, 235, 241, 246, 257, 295, 315, 326, 347","seções_1":"212(386), 217(382), 223(384), 227(389), 229(388), 233(385), 235(377), 241(380), 246(386), 257(385), 295(391), 315(390), 326(388), 347(390)","total_el_1":5401}},{"type":"Feature","id":50,"geometry":{"type":"Point","coordinates":[-48.694975599999964,-26.910833099999934]},"properties":{"db_h11sh.hsu_hxmoy.locais_votacao_secoes_2022_locais_de_votacao_e_secoe.fid":50,"oid_":0,"municíp_1":"ITAJAÍ","zona_ele_1":97,"local_de_1":"ESCOLA BÁSICA JOSÉ MEDEIROS VIEIRA","endereco_1":"RUA SAUL SCHEAD DOS SANTOS, 556","bairro_1":"SÃO VICENTE","cep":88309390,"seções":"232, 237, 244, 256, 271, 302, 332","seções_1":"232(339), 237(341), 244(342), 256(340), 271(343), 302(365), 332(343)","total_el_1":2413}},{"type":"Feature","id":51,"geometry":{"type":"Point","coordinates":[-48.698323099999982,-26.911472099999969]},"properties":{"db_h11sh.hsu_hxmoy.locais_votacao_secoes_2022_locais_de_votacao_e_secoe.fid":51,"oid_":0,"municíp_1":"ITAJAÍ","zona_ele_1":97,"local_de_1":"ESCOLA BÁSICA PEDRO PAULO REBELLO","endereco_1":"RUA EUDORO SILVEIRA, 750 - RIO BONITO","bairro_1":"SÃO VICENTE","cep":88309625,"seções":"231, 238, 243, 255, 262, 270, 284, 297, 318","seções_1":"231(369), 238(371), 243(374), 255(368), 262(375), 270(372), 284(375), 297(376), 318(378)","total_el_1":3358}},{"type":"Feature","id":52,"geometry":{"type":"Point","coordinates":[-48.701537599999938,-26.887245099999973]},"properties":{"db_h11sh.hsu_hxmoy.locais_votacao_secoes_2022_locais_de_votacao_e_secoe.fid":52,"oid_":0,"municíp_1":"ITAJAÍ","zona_ele_1":97,"local_de_1":"CENTRO EDUCACIONAL DE CORDEIROS","endereco_1":"AV. DR. REINALDO SCHMITHAUSEN, 1966","bairro_1":"CORDEIROS","cep":88310003,"seções":"252, 258, 264, 265, 269, 273, 279, 283, 287, 294, 346, 351","seções_1":"252(393), 258(398), 264(387), 265(395), 269(391), 273(396), 279(393), 283(396), 287(398), 294(399), 346(400), 351(397)","total_el_1":4743}},{"type":"Feature","id":53,"geometry":{"type":"Point","coordinates":[-48.694491399999947,-26.922923299999979]},"properties":{"db_h11sh.hsu_hxmoy.locais_votacao_secoes_2022_locais_de_votacao_e_secoe.fid":53,"oid_":0,"municíp_1":"ITAJAÍ","zona_ele_1":97,"local_de_1":"CENTRO EDUCACIONAL PEDRO RIZZI","endereco_1":"R. AGÍLIO CUNHA, 812","bairro_1":"CIDADE NOVA","cep":88308151,"seções":"253, 261, 267, 274, 280, 286, 296, 300, 307, 313, 322, 330, 339, 350, 354","seções_1":"253(388), 261(391), 267(387), 274(390), 280(396), 286(395), 296(398), 300(395), 307(395), 313(396), 322(396), 330(394), 339(389), 350(399), 354(84)","total_el_1":5593}},{"type":"Feature","id":54,"geometry":{"type":"Point","coordinates":[-48.686135799999931,-26.905289699999969]},"properties":{"db_h11sh.hsu_hxmoy.locais_votacao_secoes_2022_locais_de_votacao_e_secoe.fid":54,"oid_":0,"municíp_1":"ITAJAÍ","zona_ele_1":97,"local_de_1":"CENTRO DE EDUCAÇÃO INFANTIL ANNINHA LINHARES DE MIRANDA","endereco_1":"RUA ANTÔNIO PEIRÃO, 26","bairro_1":"SÃO VICENTE","cep":88309170,"seções":"254, 266, 278, 293, 304","seções_1":"254(346), 266(355), 278(357), 293(357), 304(357)","total_el_1":1772}},{"type":"Feature","id":55,"geometry":{"type":"Point","coordinates":[-48.696702999999957,-26.913253199999929]},"properties":{"db_h11sh.hsu_hxmoy.locais_votacao_secoes_2022_locais_de_votacao_e_secoe.fid":55,"oid_":0,"municíp_1":"ITAJAÍ","zona_ele_1":97,"local_de_1":"ESCOLA DE ENSINO MÉDIO ELFRIDA CRISTINO DA SILVA","endereco_1":"R. MARIA IOLANDA DA ROCHA, 66","bairro_1":"SÃO VICENTE","cep":88309608,"seções":"251, 272, 285, 299, 308, 314, 319, 327, 334","seções_1":"251(394), 272(395), 285(391), 299(395), 308(396), 314(394), 319(395), 327(390), 334(392)","total_el_1":3542}},{"type":"Feature","id":56,"geometry":{"type":"Point","coordinates":[-48.693798799999968,-26.975295699999947]},"properties":{"db_h11sh.hsu_hxmoy.locais_votacao_secoes_2022_locais_de_votacao_e_secoe.fid":56,"oid_":0,"municíp_1":"ITAJAÍ","zona_ele_1":97,"local_de_1":"ESCOLA BÁSICA PADRE JOSÉ DE ANCHIETA","endereco_1":"RUA JOÃO THOMAZ PINTO, 1567","bairro_1":"CANHANDUBA","cep":88313045,"seções":"276, 340","seções_1":"276(230), 340(244)","total_el_1":474}},{"type":"Feature","id":57,"geometry":{"type":"Point","coordinates":[-48.750459299999932,-26.878532599999971]},"properties":{"db_h11sh.hsu_hxmoy.locais_votacao_secoes_2022_locais_de_votacao_e_secoe.fid":57,"oid_":0,"municíp_1":"ITAJAÍ","zona_ele_1":97,"local_de_1":"CENTRO DE EDUCAÇÃO INFANTIL PROFESSORA DIVA VIEIRA ABRANTES","endereco_1":"RUA AUGUSTO CUGNIER, 456","bairro_1":"ESPINHEIROS","cep":88317519,"seções":"282, 303, 311, 320, 329, 338, 342, 345, 355","seções_1":"282(398), 303(400), 311(399), 320(398), 329(398), 338(396), 342(395), 345(398), 355(20)","total_el_1":3202}},{"type":"Feature","id":58,"geometry":{"type":"Point","coordinates":[-48.704760199999953,-26.900572999999952]},"properties":{"db_h11sh.hsu_hxmoy.locais_votacao_secoes_2022_locais_de_votacao_e_secoe.fid":58,"oid_":0,"municíp_1":"ITAJAÍ","zona_ele_1":97,"local_de_1":"ESCOLA BÁSICA JOÃO PAULO II","endereco_1":"RUA VEREADOR NESTOR DOS SANTOS, 1426","bairro_1":"CORDEIROS","cep":88310670,"seções":"292, 306, 324, 344","seções_1":"292(386), 306(387), 324(379), 344(205)","total_el_1":1357}},{"type":"Feature","id":22,"geometry":{"type":"Point","coordinates":[-48.664328799999964,-26.91613289999998]},"properties":{"db_h11sh.hsu_hxmoy.locais_votacao_secoes_2022_locais_de_votacao_e_secoe.fid":22,"oid_":0,"municíp_1":"ITAJAÍ","zona_ele_1":16,"local_de_1":"UNIVALI - UNIVERSIDADE DO VALE DO ITAJAÍ","endereco_1":"RUA URUGUAI, 458","bairro_1":"CENTRO","cep":88302202,"seções":"515, 516","seções_1":"515(0), 516(0)","total_el_1":0}},{"type":"Feature","id":60,"geometry":{"type":"Point","coordinates":[-48.681472447999965,-26.893293536999977]},"properties":{"db_h11sh.hsu_hxmoy.locais_votacao_secoes_2022_locais_de_votacao_e_secoe.fid":60,"oid_":0,"municíp_1":"ITAJAÍ","zona_ele_1":16,"local_de_1":"ESCOLA DE EDUCAÇÃO BÁSICA PROFESSOR HENRIQUE MIDON","endereco_1":"RUA  JOSÉ PEREIRA LIBERATO, N. 193","bairro_1":"SÃO JOÃO","cep":88305390,"seções":"358, 359, 360, 361, 362, 484","seções_1":"358(353), 359(348), 360(353), 361(352), 362(351), 484(357)","total_el_1":2114}}]}